[{"OBJECT_NAME":"RESURS-P 4","OBJECT_ID":"2024-061A","EPOCH":"2026-03-10T00:09:50.865408","MEAN_MOTION":15.32930455,"ECCENTRICITY":0.00024315,"INCLINATION":97.2654,"RA_OF_ASC_NODE":18.6595,"ARG_OF_PERICENTER":59.481,"MEAN_ANOMALY":300.6672,"EPHEMERIS_TYPE":0,"CLASSIFICATION_TYPE":"U","NORAD_CAT_ID":59371,"ELEMENT_SET_NO":999,"REV_AT_EPOCH":10857,"BSTAR":0.00016169192,"MEAN_MOTION_DOT":5.066e-5,"MEAN_MOTION_DDOT":0},{"OBJECT_NAME":"STARLINK-32880","OBJECT_ID":"2025-029H","EPOCH":"2026-03-09T17:21:37.933344","MEAN_MOTION":15.30216876,"ECCENTRICITY":0.00010418,"INCLINATION":53.1594,"RA_OF_ASC_NODE":232.2344,"ARG_OF_PERICENTER":56.7018,"MEAN_ANOMALY":303.4082,"EPHEMERIS_TYPE":0,"CLASSIFICATION_TYPE":"U","NORAD_CAT_ID":62955,"ELEMENT_SET_NO":999,"REV_AT_EPOCH":6133,"BSTAR":0.0011610602,"MEAN_MOTION_DOT":0.00034204,"MEAN_MOTION_DDOT":0}]
